     2.11           N: GPS NAV DATA                         RINEX VERSION / TYPE
teqc  2016Apr1      IGN                 20231128 01:12:04UTCPGM / RUN BY / DATE
    18                                                      LEAP SECONDS
    3.1665D-08  7.4506D-09 -1.1921D-07  1.1921D-07          ION ALPHA
    1.4746D+05 -1.4746D+05  0.0000D+00 -6.5536D+04          ION BETA
   -2.793967723846D-09-5.329070518201D-15   319488     2290 DELTA-UTC: A0,A1,T,W
                                                            END OF HEADER
 4 23 11 27 14  0  0.0 2.243155613542D-04 1.023181539495D-11 0.000000000000D+00
    1.020000000000D+02 1.590625000000D+01 4.945563145413D-09 1.982655171969D+00
    9.071081876755D-07 2.712019253522D-03 6.332993507385D-06 5.153595712662D+03
    1.368000000000D+05 1.303851604462D-08 1.124402168252D+00 1.154839992523D-07
    9.633881189250D-01 2.599375000000D+02-3.049605440010D+00-8.066050269084D-09
    5.207359764579D-10 1.000000000000D+00 2.290000000000D+03 0.000000000000D+00
    2.000000000000D+00 0.000000000000D+00-4.656612873077D-09 3.580000000000D+02
    1.296180000000D+05 4.000000000000D+00
11 23 11 27 14  0  0.0-4.777126014233D-04-1.580247044330D-11 0.000000000000D+00
    1.100000000000D+01-1.192812500000D+02 4.386611291396D-09 1.502884198051D+00
   -6.308779120445D-06 1.289968728088D-03 2.508983016014D-06 5.153630495071D+03
    1.368000000000D+05-5.587935447693D-09-9.551606398517D-01-2.980232238770D-08
    9.659610085419D-01 3.307187500000D+02-2.557666830758D+00-8.210341993700D-09
   -2.232235838726D-10 1.000000000000D+00 2.290000000000D+03 0.000000000000D+00
    2.000000000000D+00 0.000000000000D+00-8.381903171539D-09 7.790000000000D+02
    1.296180000000D+05 4.000000000000D+00
 6 23 11 27 14  0  0.0 4.945197142661D-04-1.068656274583D-11 0.000000000000D+00
    1.100000000000D+01-1.195625000000D+02 3.870518365483D-09 3.063487284713D-01
   -6.236135959625D-06 3.037332207896D-03 2.600252628326D-06 5.153785379410D+03
    1.368000000000D+05 5.774199962616D-08-9.923050178756D-01-4.842877388000D-08
    9.895559212390D-01 3.412812500000D+02-8.298244019515D-01-8.047120909172D-09
   -2.453673633927D-10 1.000000000000D+00 2.290000000000D+03 0.000000000000D+00
    2.000000000000D+00 0.000000000000D+00 3.725290298462D-09 1.100000000000D+01
    1.296180000000D+05 4.000000000000D+00
 9 23 11 27 14  0  0.0 9.564682841301D-06 1.148237060988D-11 0.000000000000D+00
    4.600000000000D+01 1.625000000000D+01 5.012708799442D-09 2.736594537255D+00
    9.443610906601D-07 2.966638188809D-03 6.638467311859D-06 5.153759552002D+03
    1.368000000000D+05 1.378357410431D-07 1.066259349387D+00 1.862645149231D-09
    9.568668002459D-01 2.488125000000D+02 1.986713978200D+00-8.070336161895D-09
    5.478799642568D-10 1.000000000000D+00 2.290000000000D+03 0.000000000000D+00
    2.000000000000D+00 0.000000000000D+00 1.396983861923D-09 4.600000000000D+01
    1.296180000000D+05 4.000000000000D+00
 8 23 11 27 14  0  0.0-1.541306264699D-04-1.818989403546D-12 0.000000000000D+00
    6.900000000000D+01 1.277187500000D+02 4.699124308818D-09 2.214179520345D+00
    6.513670086861D-06 8.961625979282D-03 1.434236764908D-06 5.153789588928D+03
    1.368000000000D+05-1.639127731323D-07-2.082292488892D+00 9.313225746155D-09
    9.558759702195D-01 3.512812500000D+02 2.802197680953D-01-8.437494312648D-09
    2.221521106700D-10 1.000000000000D+00 2.290000000000D+03 0.000000000000D+00
    2.000000000000D+00 0.000000000000D+00 5.122274160385D-09 6.900000000000D+01
    1.296180000000D+05 4.000000000000D+00
29 23 11 27 14  0  0.0-6.100903265178D-04 2.273736754432D-13 0.000000000000D+00
    1.010000000000D+02 8.850000000000D+01 4.249105563731D-09 2.171828978217D+00
    4.734843969345D-06 2.517656190321D-03 1.246109604836D-06 5.153683715820D+03
    1.368000000000D+05-1.862645149231D-08-1.975808715358D+00 4.842877388000D-08
    9.738309723803D-01 3.625000000000D+02 2.569068706012D+00-8.176054851217D-09
    1.553636143753D-10 1.000000000000D+00 2.290000000000D+03 0.000000000000D+00
    2.000000000000D+00 0.000000000000D+00-1.024454832077D-08 1.010000000000D+02
    1.296180000000D+05 4.000000000000D+00
25 23 11 27 14  0  0.0 4.791803658009D-04 1.591615728103D-12 0.000000000000D+00
    3.800000000000D+01 9.415625000000D+01 4.320179952836D-09-1.441171935144D+00
    4.893168807030D-06 1.150254067034D-02 1.047924160957D-05 5.153656192780D+03
    1.368000000000D+05 3.036111593246D-07-3.113998829453D+00 1.769512891769D-07
    9.521392517359D-01 1.739375000000D+02 1.057931790626D+00-7.767823561031D-09
   -3.485859485754D-10 1.000000000000D+00 2.290000000000D+03 0.000000000000D+00
    2.000000000000D+00 0.000000000000D+00 5.587935447693D-09 3.800000000000D+01
    1.296180000000D+05 4.000000000000D+00
28 23 11 27 14  0  0.0-5.591847002506D-05-9.094947017729D-12 0.000000000000D+00
    4.100000000000D+01-1.734375000000D+01 4.773413117531D-09-1.989220811214D+00
   -9.089708328247D-07 7.858098251745D-04 7.040798664093D-06 5.153783836365D+03
    1.368000000000D+05-7.450580596924D-09 2.103550825907D+00 3.539025783539D-08
    9.611328346747D-01 2.444062500000D+02 1.565909081759D+00-7.949259690002D-09
   -5.885959459551D-10 1.000000000000D+00 2.290000000000D+03 0.000000000000D+00
    2.000000000000D+00 0.000000000000D+00-9.313225746155D-09 2.970000000000D+02
    1.326720000000D+05 4.000000000000D+00
16 23 11 27 14  0  0.0-4.146154969931D-04 6.821210263297D-12 0.000000000000D+00
    6.200000000000D+01 1.318125000000D+02 3.935878230841D-09-3.035827586839D+00
    6.621703505516D-06 1.370477094315D-02 1.109391450882D-05 5.153704811096D+03
    1.368000000000D+05 2.793967723846D-08-3.011535018750D+00-1.937150955200D-07
    9.639113871669D-01 1.658437500000D+02 8.042071337466D-01-7.485311793282D-09
   -1.957224383395D-10 1.000000000000D+00 2.290000000000D+03 0.000000000000D+00
    2.000000000000D+00 0.000000000000D+00-1.024454832077D-08 6.200000000000D+01
    1.296180000000D+05 4.000000000000D+00
 2 23 11 27 14  0  0.0-5.233497358859D-04 5.115907697473D-12 0.000000000000D+00
    6.200000000000D+01-1.234687500000D+02 4.410898017322D-09 2.732504347043D+00
   -6.409361958504D-06 1.626762817614D-02 7.208436727524D-07 5.153730195999D+03
    1.368000000000D+05 2.514570951462D-07-1.086640984467D+00 4.284083843231D-08
    9.674762259425D-01 3.687187500000D+02-1.306191835516D+00-8.095694361023D-09
   -3.200133298397D-10 1.000000000000D+00 2.290000000000D+03 0.000000000000D+00
    2.000000000000D+00 0.000000000000D+00-1.769512891769D-08 6.200000000000D+01
    1.312080000000D+05 4.000000000000D+00
 1 23 11 27 14  0  0.0 1.633702777326D-04 2.273736754432D-13 0.000000000000D+00
    8.300000000000D+01-1.243437500000D+02 3.925877814283D-09 1.086324286110D-01
   -6.526708602905D-06 1.297471381258D-02 2.879649400711D-06 5.154026367188D+03
    1.368000000000D+05-7.636845111847D-08-9.839509700560D-01 2.402812242508D-07
    9.904188863735D-01 3.421250000000D+02 1.000384872423D+00-8.220699567991D-09
   -2.732256666600D-10 1.000000000000D+00 2.290000000000D+03 0.000000000000D+00
    2.800000000000D+00 6.300000000000D+01 5.122274160385D-09 8.300000000000D+01
    1.303380000000D+05 4.000000000000D+00
 3 23 11 27 14  0  0.0 1.434097066522D-05 2.626165951369D-11 0.000000000000D+00
    9.100000000000D+01-9.862500000000D+01 3.773014304047D-09-1.037539227548D+00
   -4.939734935760D-06 5.076389061287D-03 1.200661063194D-05 5.153564970016D+03
    1.368000000000D+05-1.862645149231D-09 4.476839607482D-02 1.285225152969D-07
    9.821061367313D-01 1.620000000000D+02 1.112727622623D+00-7.523884828575D-09
    4.193031799462D-10 1.000000000000D+00 2.290000000000D+03 0.000000000000D+00
    2.800000000000D+00 0.000000000000D+00 1.862645149231D-09 9.100000000000D+01
    1.315380000000D+05 4.000000000000D+00
31 23 11 27 14  0  0.0-2.261106856167D-04-3.410605131648D-13 0.000000000000D+00
    8.500000000000D+01-1.403125000000D+01 4.924133681361D-09-1.450256521828D+00
   -7.450580596924D-07 1.062149193604D-02 6.964430212975D-06 5.153645030975D+03
    1.368000000000D+05 1.806765794754D-07 2.159502666011D+00-3.911554813385D-08
    9.540853482501D-01 2.388125000000D+02 6.305233419538D-01-7.983189674751D-09
   -5.214502919263D-10 1.000000000000D+00 2.290000000000D+03 0.000000000000D+00
    2.000000000000D+00 0.000000000000D+00-1.350417733192D-08 8.500000000000D+01
    1.296180000000D+05 4.000000000000D+00
26 23 11 27 14  0  0.0 2.136426046491D-04-2.842170943040D-12 0.000000000000D+00
    1.400000000000D+01 8.984375000000D+01 4.756983861758D-09-2.247111080510D+00
    4.567205905914D-06 8.596256840974D-03 1.104734838009D-05 5.153796569824D+03
    1.368000000000D+05 5.960464477539D-08 3.110130111872D+00-1.247972249985D-07
    9.328960112291D-01 1.528750000000D+02 5.007729623354D-01-7.909258023772D-09
   -2.889406069646D-10 1.000000000000D+00 2.290000000000D+03 0.000000000000D+00
    2.000000000000D+00 0.000000000000D+00 6.984919309616D-09 1.400000000000D+01
    1.296180000000D+05 4.000000000000D+00
19 23 11 27 15 59 44.0 4.047164693475D-04 5.229594535194D-12 0.000000000000D+00
    2.100000000000D+01 9.184375000000D+01 4.388039709369D-09-8.979524720333D-01
    4.883855581284D-06 9.364567347802D-03 8.977949619293D-07 5.153667211533D+03
    1.439840000000D+05-1.899898052216D-07-1.945975644942D+00-1.210719347000D-07
    9.706068735579D-01 3.702812500000D+02 2.452095014023D+00-8.385349303808D-09
    3.071556620160D-10 1.000000000000D+00 2.290000000000D+03 0.000000000000D+00
    2.000000000000D+00 0.000000000000D+00-1.536682248116D-08 2.100000000000D+01
    1.381800000000D+05
